     2.100          NAVIGATION                              RINEX VERSION / TYPE
fic2rin                                 12/14/2013 00:23:10 PGM / RUN BY / DATE
                                                            END OF HEADER
 4 13 12 13 22  0  0.0  .414997339249D-05  .341060513165D-12  .000000000000D+00
     .710000000000D+02 -.139062500000D+02  .536808074497D-08 -.182501908387D+01
    -.679865479469D-06  .106699388707D-01  .494159758091D-05  .515364792824D+04
     .511200000000D+06  .156462192535D-06  .129909703686D+01  .931322574615D-08
     .937648888703D+00  .262875000000D+03  .106464451458D+01 -.832070373357D-08
     .339299847486D-10  .100000000000D+01  .177000000000D+04  .000000000000D+00
     .240000000000D+01  .000000000000D+00 -.651925802231D-08  .710000000000D+02
     .504006000000D+06  .400000000000D+01
 5 13 12 13 22  0  0.0 -.395447015762D-03  .102318153949D-11  .000000000000D+00
     .910000000000D+02  .258750000000D+02  .473341145130D-08 -.292914214127D+01
     .127777457237D-05  .349828344770D-02  .111367553473D-04  .515376436234D+04
     .511200000000D+06 -.614672899246D-07  .234976551675D+01 -.707805156708D-07
     .947752188631D+00  .159625000000D+03  .356936950600D+00 -.792961601462D-08
    -.416445918073D-09  .100000000000D+01  .177000000000D+04  .000000000000D+00
     .240000000000D+01  .000000000000D+00 -.102445483208D-07  .910000000000D+02
     .504006000000D+06  .400000000000D+01
 6 13 12 13 22  0  0.0  .191801693290D-03  .163709046319D-10  .000000000000D+00
     .910000000000D+02  .421875000000D+01  .471805366873D-08 -.313502017228D+01
     .361353158951D-06  .831671990454D-02  .908970832825D-05  .515368539429D+04
     .511200000000D+06 -.108033418655D-06  .191473498840D+00  .558793544769D-08
     .943413596392D+00  .193812500000D+03 -.196065730353D+00 -.797568936233D-08
     .567166481903D-09  .100000000000D+01  .177000000000D+04  .000000000000D+00
     .340000000000D+01  .000000000000D+00 -.512227416039D-08  .910000000000D+02
     .504006000000D+06  .400000000000D+01
 7 13 12 13 22  0  0.0  .291220378131D-03  .420641299570D-11  .000000000000D+00
     .200000000000D+01 -.280625000000D+02  .448197240643D-08 -.232033407294D+00
    -.160373747349D-05  .699491892010D-02  .211223959923D-05  .515365666199D+04
     .511200000000D+06  .502914190292D-07 -.181377485121D+01  .372529029846D-07
     .974308675113D+00  .343625000000D+03 -.283245289101D+01 -.838070623291D-08
    -.240724312848D-09  .100000000000D+01  .177000000000D+04  .000000000000D+00
     .240000000000D+01  .000000000000D+00 -.107102096081D-07  .200000000000D+01
     .504006000000D+06  .400000000000D+01
 8 13 12 13 22  0  0.0  .105439685285D-04  .227373675443D-12  .000000000000D+00
     .280000000000D+02 -.406562500000D+02  .390980571624D-08 -.804438151918D+00
    -.218115746975D-05  .134546291083D-01  .261701643467D-05  .515365994453D+04
     .511200000000D+06  .244006514549D-06 -.171799388436D+01 -.167638063431D-07
     .997300066808D+00  .344875000000D+03 -.279856574837D+01 -.806283584948D-08
    -.243581574722D-09  .100000000000D+01  .177000000000D+04  .000000000000D+00
     .240000000000D+01  .000000000000D+00 -.465661287308D-08  .280000000000D+02
     .504006000000D+06  .400000000000D+01
 9 13 12 13 22  0  0.0  .290269497782D-03  .284217094304D-11  .000000000000D+00
     .470000000000D+02 -.241875000000D+02  .432017995284D-08  .935642699903D+00
    -.172667205334D-05  .168337712530D-01  .259838998318D-05  .515370026207D+04
     .511200000000D+06 -.232830643654D-06 -.183548350513D+01 -.281259417534D-06
     .982885475617D+00  .343937500000D+03  .175111271120D+01 -.841999358367D-08
    -.237152735506D-09  .100000000000D+01  .177000000000D+04  .000000000000D+00
     .240000000000D+01  .000000000000D+00 -.605359673500D-08  .470000000000D+02
     .504006000000D+06  .400000000000D+01
10 13 12 13 22  0  0.0 -.105741899461D-03 -.159161572810D-11  .000000000000D+00
     .990000000000D+02  .220312500000D+02  .479948563213D-08 -.260054573208D+01
     .841915607452D-06  .132875595009D-01  .108703970909D-04  .515368816376D+04
     .511200000000D+06  .191852450371D-06  .236800682222D+01 -.219792127609D-06
     .942578596399D+00  .158187500000D+03  .841738703761D+00 -.788568561332D-08
    -.295726603914D-09  .100000000000D+01  .177000000000D+04  .000000000000D+00
     .340000000000D+01  .000000000000D+00 -.279396772385D-08  .990000000000D+02
     .504006000000D+06  .400000000000D+01
11 13 12 13 22  0  0.0 -.446462538093D-03 -.341060513165D-11  .000000000000D+00
     .370000000000D+02  .537500000000D+01  .666777773971D-08  .801743768418D-02
     .245869159698D-06  .147735674400D-01  .490993261337D-05  .515368576813D+04
     .511200000000D+06 -.162050127983D-06  .997006340653D+00  .135973095894D-06
     .889488428866D+00  .249500000000D+03  .125016746247D+01 -.934824653485D-08
     .195365280605D-09  .100000000000D+01  .177000000000D+04  .000000000000D+00
     .240000000000D+01  .000000000000D+00 -.116415321827D-07  .370000000000D+02
     .504006000000D+06  .400000000000D+01
12 13 12 13 22  0  0.0  .173826701939D-03  .227373675443D-11  .000000000000D+00
     .860000000000D+02 -.107875000000D+03  .371658338204D-08 -.538898727249D+00
    -.566989183426D-05  .462409446482D-02  .970438122749D-05  .515371712303D+04
     .511200000000D+06  .113621354103D-06 -.752394582312D+00  .465661287308D-07
     .986222113801D+00  .205937500000D+03  .327469441468D+00 -.770960685036D-08
    -.137862885400D-09  .100000000000D+01  .177000000000D+04  .000000000000D+00
     .240000000000D+01  .000000000000D+00 -.121071934700D-07  .860000000000D+02
     .504006000000D+06  .400000000000D+01
13 13 12 13 22  0  0.0  .503310002387D-04 -.375166564481D-11  .000000000000D+00
     .103000000000D+03  .109531250000D+03  .413267214238D-08  .213827248432D+01
     .577047467232D-05  .508053705562D-02  .566616654396D-05  .515366885757D+04
     .511200000000D+06  .987201929092D-07 -.277950229318D+01 -.558793544769D-08
     .979705685657D+00  .276312500000D+03  .219465710533D+01 -.792247285994D-08
     .108933108930D-09  .100000000000D+01  .177000000000D+04  .000000000000D+00
     .240000000000D+01  .000000000000D+00 -.111758708954D-07  .103000000000D+03
     .504006000000D+06  .400000000000D+01
14 13 12 13 22  0  0.0  .207899138331D-03 -.113686837722D-11  .000000000000D+00
     .430000000000D+02  .111531250000D+03  .423696220077D-08  .241779892580D+01
     .566616654396D-05  .733249669429D-02  .637024641037D-05  .515359734917D+04
     .511200000000D+06 -.745058059692D-08 -.281017290175D+01 -.126659870148D-06
     .972325303446D+00  .259218750000D+03 -.198663150766D+01 -.787639951223D-08
     .153577825704D-09  .100000000000D+01  .177000000000D+04  .000000000000D+00
     .240000000000D+01  .000000000000D+00 -.884756445885D-08  .430000000000D+02
     .504006000000D+06  .400000000000D+01
15 13 12 13 22  0  0.0 -.152077991515D-03 -.204636307899D-11  .000000000000D+00
     .820000000000D+02  .128687500000D+03  .508592613495D-08  .191153529397D+01
     .681355595589D-05  .597225257661D-02  .710971653461D-05  .515362133026D+04
     .511200000000D+06 -.372529029846D-07 -.291665454527D+01  .130385160446D-06
     .938932906530D+00  .231906250000D+03  .202357597646D+00 -.840713590524D-08
     .141434462742D-09  .100000000000D+01  .177000000000D+04  .000000000000D+00
     .240000000000D+01  .000000000000D+00 -.102445483208D-07  .820000000000D+02
     .504006000000D+06  .400000000000D+01
16 13 12 13 22  0  0.0 -.238941982388D-03  .125055521494D-11  .000000000000D+00
     .770000000000D+02 -.925000000000D+02  .361765068967D-08 -.271753364802D+01
    -.477768480778D-05  .720741832629D-02  .932440161705D-05  .515377057838D+04
     .511200000000D+06 -.596046447754D-07 -.733915994456D+00 -.279396772385D-07
     .986875788024D+00  .215687500000D+03  .129723453148D+00 -.755638618239D-08
    -.407159816984D-10  .100000000000D+01  .177000000000D+04  .000000000000D+00
     .240000000000D+01  .000000000000D+00 -.977888703346D-08  .770000000000D+02
     .504006000000D+06  .400000000000D+01
17 13 12 13 22  0  0.0 -.497074797750D-04 -.375166564481D-11  .000000000000D+00
     .370000000000D+02  .503125000000D+01  .423410493889D-08  .261122400856D+01
     .288709998131D-06  .886175595224D-02  .887364149094D-05  .515371520042D+04
     .511200000000D+06  .577419996262D-07  .299825943948D+00 -.109896063805D-06
     .967434522537D+00  .210343750000D+03 -.216968046797D+01 -.768782022857D-08
     .619311511096D-09  .100000000000D+01  .177000000000D+04  .000000000000D+00
     .240000000000D+01  .000000000000D+00 -.107102096081D-07  .370000000000D+02
     .504006000000D+06  .400000000000D+01
18 13 12 13 22  0  0.0  .290291383862D-03  .216004991671D-11  .000000000000D+00
     .850000000000D+02  .120312500000D+02  .511771317330D-08 -.210990768919D+01
     .588595867157D-06  .145856277086D-01  .106096267700D-04  .515365991020D+04
     .511200000000D+06  .173225998878D-06  .234804348809D+01 -.502914190292D-07
     .926325477060D+00  .151843750000D+03 -.206990168979D+01 -.798533262116D-08
    -.281797452281D-09  .100000000000D+01  .177000000000D+04  .000000000000D+00
     .240000000000D+01  .000000000000D+00 -.111758708954D-07  .850000000000D+02
     .504006000000D+06  .400000000000D+01
19 13 12 13 22  0  0.0 -.425174366683D-03 -.261479726760D-11  .000000000000D+00
     .410000000000D+02  .862500000000D+01  .445875715370D-08  .174644009381D+01
     .482425093651D-06  .967638823204D-02  .848621129990D-05  .515376904869D+04
     .511200000000D+06 -.130385160446D-06  .351138518260D+00  .150874257088D-06
     .964566963183D+00  .218500000000D+03  .398677224747D+00 -.799426156451D-08
     .461804950316D-09  .100000000000D+01  .177000000000D+04  .000000000000D+00
     .240000000000D+01  .000000000000D+00 -.149011611938D-07  .410000000000D+02
     .504006000000D+06  .400000000000D+01
